{"type": "FeatureCollection", "features": [ {"type": "Feature", "properties": {"norad_id": 60453, "name": "LEGION 4", "group": "resource", "lat": -10.023779194166169, "lon": 47.52149036868959, "alt_km": 515.5047504947852, "timestamp": "2025-12-09T18:55:16.896550+00:00", "meta": {"OBJECT_NAME": "LEGION 4", "OBJECT_ID": "2024-146B", "EPOCH": "2025-12-09T14:14:19.558752", "MEAN_MOTION": 15.15772949, "ECCENTRICITY": 0.00097497, "INCLINATION": 45.0385, "RA_OF_ASC_NODE": 58.7414, "ARG_OF_PERICENTER": 294.7535, "MEAN_ANOMALY": 65.2329, "EPHEMERIS_TYPE": 0, "CLASSIFICATION_TYPE": "U", "NORAD_CAT_ID": 60453, "ELEMENT_SET_NO": 999, "REV_AT_EPOCH": 7210, "BSTAR": 0.00041616331, "MEAN_MOTION_DOT": 7.829e-05, "MEAN_MOTION_DDOT": 0}, "tle": {"line1": "1 60453U 24146B   25343.59328193  .00007829  00000+0  41616-3 0  9998", "line2": "2 60453  45.0385  58.7414 0009749 294.7535  65.2329 15.15772949 72105"}}, "geometry": {"type": "Point", "coordinates": [47.52149036868959, -10.023779194166169]}}, {"type": "Feature", "properties": {"norad_id": 60989, "name": "SENTINEL-2C", "group": "resource", "lat": -68.3526975062393, "lon": 78.6399714780465, "alt_km": 797.0774056877635, "timestamp": "2025-12-09T18:55:16.896560+00:00", "meta": {"OBJECT_NAME": "SENTINEL-2C", "OBJECT_ID": "2024-157A", "EPOCH": "2025-12-09T10:51:24.113952", "MEAN_MOTION": 14.30815888, "ECCENTRICITY": 0.00011938, "INCLINATION": 98.5685, "RA_OF_ASC_NODE": 55.9822, "ARG_OF_PERICENTER": 97.8773, "MEAN_ANOMALY": 262.2545, "EPHEMERIS_TYPE": 0, "CLASSIFICATION_TYPE": "U", "NORAD_CAT_ID": 60989, "ELEMENT_SET_NO": 999, "REV_AT_EPOCH": 6585, "BSTAR": 0.00014030741, "MEAN_MOTION_DOT": 3.24e-06, "MEAN_MOTION_DDOT": 0}, "tle": {"line1": "1 60989U 24157A   25343.45236243  .00000324  00000+0  14031-3 0  9997", "line2": "2 60989  98.5685  55.9822 0001193  97.8773 262.2545 14.30815888 65857"}}, "geometry": {"type": "Point", "coordinates": [78.6399714780465, -68.3526975062393]}}, {"type": "Feature", "properties": {"norad_id": 61735, "name": "IONOSFERA-M 1", "group": "resource", "lat": -74.96990806984176, "lon": -111.38162549936041, "alt_km": 823.6703546107647, "timestamp": "2025-12-09T18:55:16.896570+00:00", "meta": {"OBJECT_NAME": "IONOSFERA-M 1", "OBJECT_ID": "2024-199A", "EPOCH": "2025-12-09T15:54:37.605600", "MEAN_MOTION": 14.22713088, "ECCENTRICITY": 0.00011052, "INCLINATION": 98.7412, "RA_OF_ASC_NODE": 213.5347, "ARG_OF_PERICENTER": 25.9937, "MEAN_ANOMALY": 334.1296, "EPHEMERIS_TYPE": 0, "CLASSIFICATION_TYPE": "U", "NORAD_CAT_ID": 61735, "ELEMENT_SET_NO": 999, "REV_AT_EPOCH": 10075, "BSTAR": 8.3671407e-05, "MEAN_MOTION_DOT": 1.43e-06, "MEAN_MOTION_DDOT": 0}, "tle": {"line1": "1 61735U 24199A   25343.66293525  .00000143  00000+0  83671-4 0  9998", "line2": "2 61735  98.7412 213.5347 0001105  25.9937 334.1296 14.22713088100759"}}, "geometry": {"type": "Point", "coordinates": [-111.38162549936041, -74.96990806984176]}}, {"type": "Feature", "properties": {"norad_id": 61736, "name": "IONOSFERA-M 2", "group": "resource", "lat": 72.70807041994372, "lon": 63.186856818005104, "alt_km": 808.0525284778969, "timestamp": "2025-12-09T18:55:16.896580+00:00", "meta": {"OBJECT_NAME": "IONOSFERA-M 2", "OBJECT_ID": "2024-199B", "EPOCH": "2025-12-09T15:03:15.079968", "MEAN_MOTION": 14.22715244, "ECCENTRICITY": 0.0001575, "INCLINATION": 98.7404, "RA_OF_ASC_NODE": 213.4118, "ARG_OF_PERICENTER": 114.2569, "MEAN_ANOMALY": 245.8774, "EPHEMERIS_TYPE": 0, "CLASSIFICATION_TYPE": "U", "NORAD_CAT_ID": 61736, "ELEMENT_SET_NO": 999, "REV_AT_EPOCH": 10387, "BSTAR": 8.3199805e-05, "MEAN_MOTION_DOT": 1.42e-06, "MEAN_MOTION_DDOT": 0}, "tle": {"line1": "1 61736U 24199B   25343.62725787  .00000142  00000+0  83200-4 0  9992", "line2": "2 61736  98.7404 213.4118 0001575 114.2569 245.8774 14.22715244103871"}}, "geometry": {"type": "Point", "coordinates": [63.186856818005104, 72.70807041994372]}}, {"type": "Feature", "properties": {"norad_id": 63772, "name": "BIOMASS", "group": "resource", "lat": -1.919807722711284, "lon": -11.431250431923468, "alt_km": 672.4011035663652, "timestamp": "2025-12-09T18:55:16.896590+00:00", "meta": {"OBJECT_NAME": "BIOMASS", "OBJECT_ID": "2025-090A", "EPOCH": "2025-12-09T11:33:00.256608", "MEAN_MOTION": 14.67534262, "ECCENTRICITY": 0.00012046, "INCLINATION": 98.0699, "RA_OF_ASC_NODE": 168.5387, "ARG_OF_PERICENTER": 78.6099, "MEAN_ANOMALY": 281.5241, "EPHEMERIS_TYPE": 0, "CLASSIFICATION_TYPE": "U", "NORAD_CAT_ID": 63772, "ELEMENT_SET_NO": 999, "REV_AT_EPOCH": 3286, "BSTAR": 0.00035298331, "MEAN_MOTION_DOT": 1.954e-05, "MEAN_MOTION_DDOT": 0}, "tle": {"line1": "1 63772U 25090A   25343.48125297  .00001954  00000+0  35298-3 0  9994", "line2": "2 63772  98.0699 168.5387 0001204  78.6099 281.5241 14.67534262 32864"}}, "geometry": {"type": "Point", "coordinates": [-11.431250431923468, -1.919807722711284]}}, {"type": "Feature", "properties": {"norad_id": 64694, "name": "GOSAT-GW (IBUKI GW)", "group": "resource", "lat": 30.63962551944178, "lon": -85.44929661890703, "alt_km": 666.5117514913854, "timestamp": "2025-12-09T18:55:16.896600+00:00", "meta": {"OBJECT_NAME": "GOSAT-GW (IBUKI GW)", "OBJECT_ID": "2025-141A", "EPOCH": "2025-12-08T18:14:08.043648", "MEAN_MOTION": 14.67565462, "ECCENTRICITY": 0.00014946, "INCLINATION": 98.0423, "RA_OF_ASC_NODE": 278.345, "ARG_OF_PERICENTER": 82.5316, "MEAN_ANOMALY": 277.6059, "EPHEMERIS_TYPE": 0, "CLASSIFICATION_TYPE": "U", "NORAD_CAT_ID": 64694, "ELEMENT_SET_NO": 999, "REV_AT_EPOCH": 2391, "BSTAR": 0.00038232231, "MEAN_MOTION_DOT": 2.122e-05, "MEAN_MOTION_DDOT": 0}, "tle": {"line1": "1 64694U 25141A   25342.75981532  .00002122  00000+0  38232-3 0  9995", "line2": "2 64694  98.0423 278.3450 0001494  82.5316 277.6059 14.67565462 23916"}}, "geometry": {"type": "Point", "coordinates": [-85.44929661890703, 30.63962551944178]}}, {"type": "Feature", "properties": {"norad_id": 64876, "name": "IONOSFERA-M 3", "group": "resource", "lat": 16.88894470149767, "lon": 128.36462322657513, "alt_km": 821.2178904632601, "timestamp": "2025-12-09T18:55:16.896610+00:00", "meta": {"OBJECT_NAME": "IONOSFERA-M 3", "OBJECT_ID": "2025-155A", "EPOCH": "2025-12-09T14:46:45.755904", "MEAN_MOTION": 14.21439814, "ECCENTRICITY": 0.0002308, "INCLINATION": 98.5778, "RA_OF_ASC_NODE": 305.5704, "ARG_OF_PERICENTER": 64.9514, "MEAN_ANOMALY": 295.1903, "EPHEMERIS_TYPE": 0, "CLASSIFICATION_TYPE": "U", "NORAD_CAT_ID": 64876, "ELEMENT_SET_NO": 999, "REV_AT_EPOCH": 1947, "BSTAR": 9.1225228e-05, "MEAN_MOTION_DOT": 1.57e-06, "MEAN_MOTION_DDOT": 0}, "tle": {"line1": "1 64876U 25155A   25343.61580736  .00000157  00000+0  91225-4 0  9997", "line2": "2 64876  98.5778 305.5704 0002308  64.9514 295.1903 14.21439814 19470"}}, "geometry": {"type": "Point", "coordinates": [128.36462322657513, 16.88894470149767]}}, {"type": "Feature", "properties": {"norad_id": 64877, "name": "IONOSFERA-M 4", "group": "resource", "lat": -16.51976562196877, "lon": -51.77658180532448, "alt_km": 825.1327162341704, "timestamp": "2025-12-09T18:55:16.896620+00:00", "meta": {"OBJECT_NAME": "IONOSFERA-M 4", "OBJECT_ID": "2025-155B", "EPOCH": "2025-12-09T15:37:15.667392", "MEAN_MOTION": 14.21440941, "ECCENTRICITY": 0.0001667, "INCLINATION": 98.5777, "RA_OF_ASC_NODE": 305.5241, "ARG_OF_PERICENTER": 66.529, "MEAN_ANOMALY": 293.6062, "EPHEMERIS_TYPE": 0, "CLASSIFICATION_TYPE": "U", "NORAD_CAT_ID": 64877, "ELEMENT_SET_NO": 999, "REV_AT_EPOCH": 1947, "BSTAR": 9.6654053e-05, "MEAN_MOTION_DOT": 1.69e-06, "MEAN_MOTION_DDOT": 0}, "tle": {"line1": "1 64877U 25155B   25343.65087578  .00000169  00000+0  96654-4 0  9992", "line2": "2 64877  98.5777 305.5241 0001667  66.5290 293.6062 14.21440941 19474"}}, "geometry": {"type": "Point", "coordinates": [-51.77658180532448, -16.51976562196877]}}, {"type": "Feature", "properties": {"norad_id": 64899, "name": "MICROCARB", "group": "resource", "lat": -38.486595303661716, "lon": 65.60321399774864, "alt_km": 672.6076755180084, "timestamp": "2025-12-09T18:55:16.896630+00:00", "meta": {"OBJECT_NAME": "MICROCARB", "OBJECT_ID": "2025-156A", "EPOCH": "2025-12-09T10:56:29.938848", "MEAN_MOTION": 14.72049485, "ECCENTRICITY": 0.00169337, "INCLINATION": 98.0028, "RA_OF_ASC_NODE": 58.854, "ARG_OF_PERICENTER": 154.8146, "MEAN_ANOMALY": 205.389, "EPHEMERIS_TYPE": 0, "CLASSIFICATION_TYPE": "U", "NORAD_CAT_ID": 64899, "ELEMENT_SET_NO": 999, "REV_AT_EPOCH": 2005, "BSTAR": 0.00022635085, "MEAN_MOTION_DOT": 1.375e-05, "MEAN_MOTION_DDOT": 0}, "tle": {"line1": "1 64899U 25156A   25343.45590207  .00001375  00000+0  22635-3 0  9990", "line2": "2 64899  98.0028  58.8540 0016933 154.8146 205.3890 14.72049485 20054"}}, "geometry": {"type": "Point", "coordinates": [65.60321399774864, -38.486595303661716]}}, {"type": "Feature", "properties": {"norad_id": 64900, "name": "CO3D 3", "group": "resource", "lat": -31.793698874678828, "lon": -124.44476171744438, "alt_km": 511.60967475772486, "timestamp": "2025-12-09T18:55:16.896640+00:00", "meta": {"OBJECT_NAME": "CO3D 3", "OBJECT_ID": "2025-156B", "EPOCH": "2025-12-09T14:49:56.444160", "MEAN_MOTION": 15.2021283, "ECCENTRICITY": 0.00013691, "INCLINATION": 97.434, "RA_OF_ASC_NODE": 60.0298, "ARG_OF_PERICENTER": 105.5866, "MEAN_ANOMALY": 254.5521, "EPHEMERIS_TYPE": 0, "CLASSIFICATION_TYPE": "U", "NORAD_CAT_ID": 64900, "ELEMENT_SET_NO": 999, "REV_AT_EPOCH": 2073, "BSTAR": 0.00043107505, "MEAN_MOTION_DOT": 9.279e-05, "MEAN_MOTION_DDOT": 0}, "tle": {"line1": "1 64900U 25156B   25343.61801440  .00009279  00000+0  43108-3 0  9994", "line2": "2 64900  97.4340  60.0298 0001369 105.5866 254.5521 15.20212830 20733"}}, "geometry": {"type": "Point", "coordinates": [-124.44476171744438, -31.793698874678828]}}]}